article_id;id_institucion;id_version;additionaltype;nombre;nombre_oficial;url;descripcion;direccion;email;telefono;imagen;ubicacion;logo;autoridad;vision;mision;publicservantlist;version;structureid;tipoinstitucion;latitud;longitud;abreviatura
14215;14217;20821;http://www.sfp.gov.py;Secretaría de la Función Pública;Secretaría de la Función Pública (SFP);http://www.sfp.gov.py;"La Secretaría de la Función Pública (SFP) fue creada por la Ley 1626 en el año 2000, tiene rango ministerial y dependencia directa de la Presidencia de la República. Dicha ley define a la institución como el organismo central normativo para la función pública y el desarrollo institucional de las entidades estatales. Entre sus principales atribuciones está la de formular la política de gestión y desarrollo de las personas que trabajan en el sector público. Las áreas de Gestión y Desarrollo de las Personas (o Recursos Humanos) u otras equivalentes de los organismos y entidades del Estado, son las unidades operativas descentralizadas.";Constitución esq. 25 de Mayo;sfp@sfp.gov.py;(021) 451 925 / 492 109;"";Asunción - Paraguay;"";Humberto Peralta Beaufort;"Una institución transparente, cercana a la gente, protagonista del cambio cultural en la gestión pública, garante de trabajadores y trabajadoras del Estado con ética e idoneidad, capaces de brindar servicios públicos eficaces y eficientes, con calidad y calidez humana.";"Formular y garantizar la implementación de políticas para la calidad de la gestión pública y el desarrollo de las personas que trabajan en el Estado, orientadas a su profesionalización para el servicio a la ciudadanía.";Nómina de Funcionarios;1.2;13527;2;-25.289349;-57.623869;
23246;23248;23329;Secretaria de Prevención de Lavado de Dinero (SEPRELAD);Secretaria de Prevención de Lavado de Dinero (SEPRELAD);Secretaria de Prevención de Lavado de Dinero;http://www.seprelad.gov.py/;"La SEPRELAD, tiene como objetivo principal, mediante acciones y procedimientos concretos, cambiar la postura estratégica a los efectos de modificar, favorablemente, el escenario futuro cercano y así poder ejercer el rol que le corresponde conforme a sus obligaciones y facultades establecidas en la Ley 1015/97 ""Que Previene y Reprime los Actos Ilícitos destinados a la Legitimación del Dinero o Bienes"" y determinar además, con precisión las necesidades de cambios, estructurales, legales, administrativas, entre otros.";Federación Rusa y Cabo 1° Marecos;seprelad@seprelad.gov.py;"Tel: +595 21 600435
Fax: +595 21 600435 (int. 6144 / 6121)";"";Asunción - Paraguay;"";Oscar Boidanich;Ser referente nacional e internacional por la aplicación efectiva y eficaz de los mecanismos establecidos para la prevención del lavado de dinero y financiamiento del terrorismo.;Reducir el riesgo de exposición al lavado y al financiamiento del terrorismo del sector financiero y otros sectores de la economía nacional.;Nómina de Funcionarios;1.4;13527;2;-25.277381;-57.577825;
14019;14021;39593;http://www.senad.gov.py/;Secretaría Nacional Antidrogas;Secretaría Nacional Antidrogas;http://www.senad.gov.py/;"Es la institución estatal encargada por mandato de la Constitución Nacional de reprimir la producción y tráfico ilícitos de las sustancias estupefacientes y demás drogas peligrosas, así como los actos destinados a la legitimación del dinero proveniente de dichas actividades e igualmente combatir el consumo ilícito de dichas drogas.";Avda. Fernando de la Mora 2998 c/ Avda. De la Victoria;senadcomunicacion@gmail.com;(021) 554 - 585 / 6;"";Asunción - Paraguay;"";Luis Alberto Rojas;"El respeto de la dignidad humana como valor fundamental, la libertad y seguridad de la República y la voluntad de la cooperación internacional se constituyen en la visión política que fundamenta esta lucha; ya que la compleja problemática de las drogas conduce a la degradación de la persona humana y se ha constituido en amenaza común para todos los países del mundo, por lo que el Paraguay, sustentando el principio de la ""responsabilidad compartida"", asume el compromiso que le corresponde en la solución de este problema.";"Es la institución estatal encargada por mandato de la Constitución Nacional de reprimir la producción y tráfico ilícitos de las sustancias estupefacientes y demás drogas peligrosas, así como los actos destinados a la legitimación del dinero proveniente de dichas actividades e igualmente combatir el consumo ilícito de dichas drogas.";Sin datos.;1.7;13527;2;-25.334101;-57.590731;
14001;14003;73951;http://www.senatur.gov.py/;Secretaría Nacional de Turismo;Secretaría Nacional de Turismo;http://www.senatur.gov.py/;"La SENATUR es la Institución rectora de las políticas turísticas del Paraguay, regida por la Ley 2828/05 cuyo objeto es regular la orientación, facilitación, el fomento, la coordinación y control de las actividades turísticas del país, para el desarrollo socio-económico como factor fundamental, en total concordancia con el medio ambiente y la cultura.";"SENATUR, Salón Turista Róga 
	Palma 468 c/ Alberdi
	Tel.: (021)494.110
	Horario de Atención: lunes a domingos 07:00 a 19:00 hs.
	http://www.paraguay.travel

	 

	SENATUR, Ciudad de Areguá

	Calle La Candelaria 515

	Tel: (0291)433.500

	 

	SENATUR, Ciudad de Luque
	Aeropuerto Internacional Silvio Pettirossi
	Tel: (021)645.600 Int: 2349
	Horario de Atención: lunes a domingos 10:00 a 18:00 hs.
	
	SENATUR, Ciudad del Este
	Oficina 1: Mcal. Estigarribia y Adrián Jara 
	(al lado del cuerpo de Bomberos)
	Tel: (061)511.626/508.810/508.811

	Oficina 2: Cabecera del Puente Internacional de La Amistad.
	Atención las 24 horas.
	
	SENATUR, Ciudad de Encarnación 
	Ruta Internacional, Cabecera del Puente 
	San Roque González de Santa Cruz
	Cel.: (0985)794.595
	
	Oficina 1: Cámara Paraguaya de Turismo de las Misiones Jesuíticas

	Mcal. Estigarribia 1015 c/ Curupayty

	Horario de atención: Lunes a Viernes 07:30 A 18:00 HS.

	Tel.: (071)205.021";infosenatur@senatur.gov.py;"(595 21) 494.110/441.530
	(595 21) 491.230";"";Asunción - Paraguay;"";Marcela Bacigalupo;"Institución moderna y dinámica, que promueve el desarrollo integral de la industria turística, convirtiéndola en una de las más importantes impulsoras de la economía nacional.";"Ejecutar la Política Nacional en materia de turismo, promoviendo, difundiendo y desarrollando el turismo interno y receptivo";Nómina de Funcionarios;1.8;13527;2;-25.281205;-57.636297;
14249;14251;86416;http://www.repatriados.gov.py/;Secretaría de Desarrollo para Repatriados y Refugiados Connacionales;Secretaría de Desarrollo para Repatriados y Refugiados Connacionales (SDRRC);http://www.repatriados.gov.py/;"La situación política de nuestro país iniciada en febrero de 1989, sumada a otros temas como el decaimiento económico y endurecimiento de la aplicación de leyes migratorias en los países tradicionalmente receptores, han inducido al retorno significativo de nuestros connacionales y sus familias conformada en el extranjero; esta situación motivó una iniciativa de paraguayos retornados del exilio de diferentes extracciones políticas, que fue tomada por un grupo de legisladores, que vivieron en el exterior, para proyectar la creación del Consejo Nacional de Repatriación de Connacionales (CNRC – Ley Nº 40/89), en el seno del Parlamento, a partir del cual los organismos oficiales y la opinión pública se han ido creando conciencia de la necesidad de definir políticas y estrategias para apoyar un retorno ordenado e institucionalizado de los compatriotas residentes en el exterior, así como establecer un sistema de acompañamiento y promoción socio-económico acorde a la realidad que hoy vive el país.";25 de Mayo 1091 c/ Brasil;contactos@repatriados.gov.py;"+ 595 21 226858

	+ 595 21 226866

	+ 595 21 226880 

	+ 595 21 226797";"";Asunción - Paraguay;"";Luis Alberto Bogado Poisson;"La SDRREC, es la institución estatal que brinda atención a quienes retornan a la patria, implementando una gestión, comprometida con el proceso de la repatriación, que proporciona información oportuna y veraz sobre la realidad de la migración externa y cuenta con recursos humanos formados integralmente para el desempeño eficiente de sus tareas.

	La labor eficaz de la institución ha logrado involucrar en su accionar a connacionales residentes en el exterior que individualmente o a través de las organizaciones que integran, mantienen vivo su interés en el país, a la vez que, ha incorporado la temática del retorno, entre las prioridades nacionales asi como en la agenda de trabajo y discusión de la región.";"La SDRREC, desarrolla acciones que promueven la reinserción dignificante de connacionales y su inclusión en el proceso de desarrollo nacional, dando atención especial a los casos de retorno forzoso en el marco del respeto a los derechos humanos, contribuyendo al reencuentro de las personas repatriadas con su entorno familiar y social.

	Asumiendo al Paraguay como una nación históricamente migrante, apoya iniciativas de diálogo tendientes a la continuidad y fortalecimiento del vínculo con el país.";Ver Nómina de Funcionarios;1.4;13527;2;-25.288503;-57.625105;
14307;14309;86484;http://www.sen.gov.py/;Secretaría de Emergencia Nacional;Secretaría de Emergencia Nacional (SEN);http://www.sen.gov.py/;"La Secretaría de Emergencia Nacional (SEN) es una institución creada por la Ley Nº 2615/05 y depende directamente de la Presidencia de la República del Paraguay.
	La SEN es el organismo rector y conductor del Sistema Nacional de Emergencia (SISNE), encargado de la organización de la población, coordinación, planeamiento y control de las actividades de Defensa y Protección Civil.
	La SEN incorpora como elementos de trabajo la elaboración de Mapas de Riesgo, Alerta temprana y la Gestión Integral de Riesgos.
	En todas sus tareas de ayuda humanitaria incluye componentes de sostenibilidad apuntando a mejorar la calidad de vida en las diferentes comunidades del país y a disminuir los efectos provocados por los desastres fortaleciendo la capacidad de respuesta a nivel comunitario.";Fulgencio R. Moreno c/ Parapiti.;secretaria.general@sen.gov.py;(595 21) 440-997   Fax:(595 21) 440-998;"";Asunción - Paraguay;"";Joaquín Roa;"La visión de la SEN es ser una institución capaz en la identificación de vulnerabilidades,  de excelencia en la planificación, desarrollo y aplicación de medidas de prevención, mitigación, respuesta  y rehabilitación desde un sistema reactivo a uno preventivo, que  inserte el concepto regional e internacional de la Protección Civil  en la cotidianidad socio cultural de la población. Generando la autoprotección, corresponsabilidad y la participación ciudadana.";"Es misión de la SEN garantizar la protección de las personas, las comunidades, sus bienes y su medio ambiente ante situaciones que impliquen amenaza, vulnerabilidad o riesgo, mediante acciones de prevención y mitigación; y contrarrestar los efectos de las emergencias y catástrofes en estrecha coordinación con las instituciones y organizaciones integrantes del sistema nacional de protección civil, organismo regionales e internacionales.";Sin datos;1.9;13527;2;-25.289885;-57.629595;
14713;14715;86532;http://www.sicom.gov.py;Secretaría de Información y Comunicación;Secretaría de Información y Comunicacion (SICOM);http://www.sicom.gov.py;"La SICOM es el organismo rector de las políticas y actividades del Gobierno Nacional en el sector de la Información y Comunicación, con énfasis en Comunicación para el Desarrollo. Fue creada por Decreto 171 del 27 de agosto de 2008 y tiene como misión desplegar estrategias que vinculen al Estado y a la Comunidad en la construcción de una comunicación que promueva el diálogo social y el desarrollo, a partir de una gestión participativa y transparente.";Ayolas 451 entre Oliva y Estrella. Edif. Capital;dgce.sicom@gmail.com;(021) 449113;"";Asunción- Paraguay;"";Fabrizio Caligaris;"Son funciones de la SICOM:

	• Desarrollar y dirigir las políticas comunicacionales del Gobierno.

	• Facilitar el acceso a la información pública y su difusión.

	• Desarrollar, en el sector de la información y comunicación para el desarrollo social, procesos de planificación, coordinación, evaluación y asesoramiento a las oficinas y agencias informativas de entes públicos y a la parte paraguaya de las entidades binacionales, e implementar marcos organizativos y metodológicos para su mejor funcionamiento.

	• Desarrollar espacios de formación y capacitación de comunicadores, técnicos y productores en general de medios comunitarios, estatales y comerciales.

	• Implementar estrategias comunicacionales comunitarias que promuevan la cultura nacional, el desarrollo y la educación abriendo canales de participación social y acelerando procesos de inclusión de sectores marginados por los medios de comunicación de masa.

	• Dirigir las relaciones públicas y operativas del Gobierno Nacional con los medios de comunicación privados,  las organizaciones sin fines de lucro no pertenecientes a la esfera gubernamental y las organizaciones internacionales estatales y privadas que operen en el ámbito de la comunicación y la cultura.

	• Facilitar al Presidente de la República y su entorno, información responsable y eficaz para generar toma de posiciones públicas o decisiones gubernativas.

	Proyectar la creación de otros medios y espacios necesarios para extender el acceso a la información pública, la educación y la inclusión de la población.

	• Divulgar, a nivel nacional y mundial, acciones gubernativas y realidades del Paraguay.

	• Velar por la libertad de expresión, el derecho a la información y el acceso a las tecnologías y al conocimiento.";"Los fines prioritarios de la política de comunicación gubernamental son:

	•    Democratizar la comunicación.

	•    Fortalecer la cultura nacional y la identidad paraguaya y latinoamericana.

	•    Ampliar el alcance y la calidad de la educación.

	•    Fortalecer las organizaciones de base y la participación ciudadana

	•    Apoyar el desarrollo integral del país.";"http://www.sicom.gov.py/index.php?option=com_content&amp;view=article&amp;id=306:lista-de-salarios-funcionarios-nombrados&amp;catid=34:institucional&amp;Itemid=28";1.4;13527;2;-25.280470;-57.639986;
14833;14835;86785;http://www.senac.gov.py/;Secretaría Nacional Anticorrupción (SENAC);Secretaría Nacional Anticorrupción (SENAC);http://www.senac.gov.py/;"La Secretaria Nacional Anticorrupción, identificada con las siglas (SENAC) , se constituye en la instancia rectora, normativa y estratégica en el diseño , ejecución, implementación, monitoreo y evaluación de las políticas  públicas del Gobierno Nacional  en materia en materia de anticorrupción, integridad y transparencia.";Ayolas 451 e/Estrella y Oliva – Edificio Capital 5to piso;senacpy@gmail.com;021 -450 001 / 450 002;"";Asunción - Paraguay;"";Abog. Maria Soledad Quiñonez Astigarraga;"Coordinar con los diferentes organismos del Estado, las instancias internas institucionales especializadas en temas relacionados a la lucha contra la corrupción, y la ciudadanía en general.";Liderar la aplicación de políticas de transparencia de gestión y lucha contra la corrupción en todas las instituciones del Poder Ejecutivo.;NO DISPONIBLE;1.4;13527;2;-25.280456;-57.639991;
14843;14845;90773;http://www.senadis.gov.py/;Secretaría Nacional por los Derechos Humanos de las Pesonas con Discapacidad (SENADIS);Secretaría Nacional por los Derechos Humanos de las Pesonas con Discapacidad (SENADIS);http://www.senadis.gov.py/;"La Secretaría Nacional por los Derechos de las Personas con Discapacidad (SENADIS), dependiente  de la Presidencia de la República del Paraguay, es la institución del Estado que tiene la función de formular, impulsar y vigilar el cumplimiento de Políticas Nacionales relacionadas con la discapacidad, acordes a las obligaciones derivadas de los tratados internacionales de Derechos Humanos, con el propósito de construir una sociedad inclusiva, que logre la igualdad de oportunidades, participación,  accesibilidad y el ejercicio pleno de los derechos  de las Personas con Discapacidad.";Yeruti  y Jacaranda – Fernando de la Mora Zona Norte – Barrio IPVU;gabinetesenadis@gmail.com;"Gabinete: (59521) 670-665
	Planificación: (59521) 670-093
	Central: (59521) 670-593   (59521) 670-569";"";Fernando de la Mora - Paraguay;"";Lic. Rocío Soledad Florentín Gómez;"Ser una institución reconocida en el ámbito nacional e internacional por los importantes avances en el logro de la construcción de una sociedad inclusiva, solidaria basada en el reconocimiento y goce pleno de los derechos humanos, que contribuye a superar la inequidad, la inclusión, la discriminación y la pobreza de las PcD, mediante la efectiva defensa, promoción y protección de sus derechos.";"Garantizar la igualdad de oportunidades, la inclusión social, el respeto de los derechos, la participación en el diálogo social la accesibilidad de las PcD, con miras a mejorar su calidad de vida y en consecuencia la de sus familias y en el entorno, adoptando gradualmente las medidas necesarias para el efectivo complacimiento de las políticas públicas basadas en la Constitución Nacional y en la Conversión por los derechos de las PcD.";SIn Datos;1.9;13527;2;-25.313243;-57.540168 ;
14703;14705;102034;http://www.cultura.gov.py;Secretaría Nacional de Cultura;Secretaría Nacional de Cultura (SNC);http://www.cultura.gov.py;"La Secretaría Nacional de Cultura, creada por la Ley 3051/06 Nacional de Cultura, es el ente regulador de las políticas culturales de la República del Paraguay.";Sede central EEUU 284 esq. Mcal. Estigarribia;contacto@cultura.gov.py;(021)442515/6  (021) 492548;"";Asunción - Paraguay;"";Arq. Mabel Causarano;"Su visión es ser una institución confiable, transparente y pluralista, consagrada a la protección de la riqueza y la diversidad cultural, a la promoción y defensa de las diferentes manifestaciones artísticas y culturales, reforzando la identidad nacional en una sociedad más justa, cohesionada e integradora.";"Su misión es promover las condiciones necesarias para el ejercicio de los derechos culturales por parte de ciudadanos y colectividades, a través de la incorporación de la dimensión cultural en las diferentes políticas públicas del Estado, la descentralización de la gestión cultural y la promoción de la participación ciudadana.";"http://www.cultura.gov.py/lista-de-nomina-de-funcionarios-de-la-snc/?preview=true&amp;preview_id=18470";1.5;13527;2;-25.286979;-57.626123;
13728;13730;88848;http://www.mdn.gov.py/;Ministerio de Defensa Nacional;Ministerio de Defensa Nacional;http://www.mdn.gov.py/;"El MDN es el encargado de la dirección, gestión y ejecución de la política referente a la Defensa Nacional, y el desempeño de las funciones administrativas de las Fuerzas Armadas de la Nación.";Avda. Mariscal López e/ Vice Presidente Sánchez;informatica@mdn.gov.py;+59521 2490000;"";Asunción - Paraguay;"";Gral. Ejto. (R) BERNARDINO SOTO ESTIGARRIBIA;"Ser una Institución moderna, con capital humano profesional, altamente calificado, de sólidos valores morales y elevado sentido de pertenencia";"El Ministerio de Defensa Nacional es el organismo del Poder Ejecutivo, que tiene como función la dirección, gestión y ejecución de la política referente a la Defensa Nacional, y el desempeño de las funciones administrativas de las Fuerzas Armadas de la Nación.";Ver Nómina de Funcionarios;1.4;13527;1;-25.293429;-57.612831;
14788;14790;102156;http://www.senavitat.gov.py;Secretaría Nacional de la Vivienda y el Hábitat;Secretaría Nacional de la Vivienda y el Hábitat (SENAVITAT);http://www.senavitat.gov.py;"SENAVITAT, es una entidad descentralizada y autárquica, creada por Ley 3.909/10 como única institución rectora de la política habitacional, siguiendo la línea de trabajo iniciada por su predecesora el CONAVI, y consciente de la necesidad de planificar y ejecutar propuestas a corto, mediano y largo plazo, además de dar sostenibilidad a los planes y programas iniciados, con el objetivo superior de apoyar el desarrollo socioeconómico con equidad y universalidad.";Independencia Nacional Nº 909 e/ Manuel Domínguez.;sgeneral@senavitat.gov.py;(021)  444-340 R.A;"";Asunción - Paraguay;"";Arq.Francisco Knapps Huber;"Ser una Institución de rango ministerial reconocida y líder en la implementación de Políticas Públicas en el ámbito de la vivienda y el hábitat, de alcance nacional, con presencia y representación regional; con solvencia financiera, utilizando tecnología de punta, mediante el concurso de servidores públicos capacitados y comprometidos.";"Somos una Institución Gubernamental de Servicio Público creada para establecer, regir e implementar la política del Sector Habitacional del país, coordinando los procesos con los actores relacionados al sector, posibilitando el acceso universal a la vivienda y hábitat dignos, priorizando a las familias de escasos recursos, buscando soluciones integrales para disminuir el déficit habitacional y mejorar la calidad de vida de todos los ciudadanos.
	La misión del SENAVITAT, es fijar la Política Nacional de la Vivienda e impulsar Programas Habitacionales, en el marco de las políticas macro económicas y del Plan Nacional de Desarrollo que las expresa, tendientes a satisfacer las demandas de vivienda y de soluciones habitacionales de la población.";http://www.senavitat.gov.py/blog/documentos/lista-de-funcionarios/;1.6;13527;2;-25.287711;-57.637072;
14290;14292;186591;http://www.snd.gov.py/;Secretaría Nacional de Deportes;Secretaría Nacional de Deportes (SND);http://www.snd.gov.py/;Sin datos;Avda. Eusebio Ayala y Oroite Km. 4 1/2;info@snd.gov.py;59521 520671/6;"";"Asunción, Paraguay";"";Víctor Manuel Pecci Balart;"Lograr el desarrollo de programas en distintos niveles institucionales, tales como las Entidades Deportivas, Municipalidades y Gobernaciones, que logren una articulación y concatenación de acciones, a fin de obtener resultados favorables en el ámbito deportivo Nacional e Internacional; a través del cumplimiento de la Política Deportiva Nacional y la utilización eficiente de los recursos disponibles.";"Somos una Institución, que fomenta la cultura y práctica deportiva, utilizando la motricidad física como medio de desarrollo integral de las personas, buscando la integración social, la recreación, la concienciación, la expansión y la sana competencia, para una mejor calidad de vida y la salud de la población, a través de la cooperación institucional de las entidades que compartan fines similares y posibiliten la efectividad en el uso de los recursos del Estado.";SIN DATOS;1.4;13527;2;-25.316988;-57.580908;
13977;13979;188704;http://www.stp.gov.py/;Secretaría Técnica de Planificación del Desarrollo Económico y Social (STP);Secretaría Técnica de Planificación del Desarrollo Económico y Social (STP);http://www.stp.gov.py/;"Institución Gubernamental rectora de la planificación, encargada de coordinar, evaluar, diseñar y promover las acciones conducentes al desarrollo sostenible del país, brindando lineamientos, estudios, información y asistencia técnica para la formulación e implementación de planes y políticas públicas orientados a mejorar el bienestar de la población, en el marco de los principios de equidad, participación y responsabilidad social";Estrella 505 esq. 14 de Mayo;stp@stp.gov.py;(595-21) 450-422  Fax: 496-510;"";Asunción - Paraguay;"";José Molinas Vega;"Seremos la institución gubernamental líder en la planificación del desarrollo y la información, con influencia en los niveles de toma de decisiones y reconocida por los organismos nacionales e internacionales … con funcionarios calificados y comprometidos en la prestación de servicios de alta calidad, confiables y oportunos, orientados a la excelencia de la gestión pública en beneficio de la sociedad";"Somos la Institución Gubernamental rectora de la planificación, encargada de coordinar, evaluar, diseñar y promover las acciones conducentes al desarrollo sostenible del país, brindando lineamientos, estudios, información y asistencia técnica para la formulación e implementación de planes y políticas publicas orientados a mejorar el bienestar de la población, en el marco de los principios de equidad, participación y responsabilidad social.";Nómina de Funcionarios;1.5;13527;2;-25.281582;-57.637250;
23268;23270;199602;Secretaría Nacional de la Juventud (SNJ);Secretaría Nacional de la Juventud (SNJ);Secretaría Nacional de la Juventud (SNJ);http://www.snj.gov.py/;SIN DATOS;Ayolas 451 entre Estrella y Oliva. Edificio Capital;snjparaguay@gmail.com;+59521 3274770;"";Asunción - Paraguay;"";Marcelo Soto Pavón;SIN DATOS;SIN DATOS;SIN DATOS;1.8;13527;2;-25.280440;-57.639981;
14035;14037;218923;http://www.sas.gov.py;Secretaría de Acción Social;Secretaría de Acción Social;www.sas.gov.py;"La acción institucional de la Secretaría de Acción Social (SAS) se enmarca en la propuesta del Plan Nacional de Desarrollo Social 2010-2020, Paraguay para Todos y Todas, directamente en los ejes y objetivos referidos a la resignificación de las políticas sociales para la población afectada por la pobreza y la indigencia.

	El abordaje de la SAS se basa fundamentalmente en una política social enmarcada en el Estado Social de Derecho con Sistema de Gobierno Democrático. Esto quiere decir que nuestra acción es un componente entre todas las complejas acciones nacionales que se requieren para reducir la pobreza y la exclusión (como parte integradora, cuenta con una función trascendental al implementar un programa que se constituye en puerta de entrada al Sistema de Protección Social).

	La SAS está orientada hacia el cumplimiento de compromisos internacionales como los Objetivos de Desarrollo del Milenio (ODM) y el Plan Estratégico de Acción Social del MERCOSUR.";Avenida Mariscal López y Coronel. Pampliega;secsas@sas.gov.py;(595-21) 678 430 / 31 / 53;"";Asunción - Paraguay;"";Lic. Héctor Ramón Cárdenas Molinas;"Somos una institución reconocida por su honestidad, transparencia y eficiencia en la gestión de programas sociales que, en el marco de políticas de estado, promueve el desarrollo integral de personas, familias y comunidades para la superación de la exclusión generada por la pobreza y la vulnerabilidad"".";"""Liderar y coordinar el diseño y la implementación de la política social del Estado""";http://www.sas.gov.py/nomina;2;13527;2;-25.315020;-57.527193;
14053;14055;219400;http://www.seam.gov.py/;Secretaria del Ambiente;Secretaria del Ambiente (SEAM);http://www.seam.gov.py/;"La Secretaría del Ambiente (SEAM), es una entidad que tiene como función o propósitos la formulación de políticas, la coordinación, la supervisión, la ejecución de las acciones ambientales, los planes, programas y proyectos enmarcados en el Plan Nacional de Desarrollo, referentes a la preservación, la conservación, la recomposición y el manejo de los recursos naturales.";Madame Lynch Nr. 3500 c/ 1er. Presidente;comunicacion@seam.gov.py;"+59521 615 805, 595 21 615 812, 615 814";"";Asunción - Paraguay;"";Lic. Cristina Morales Palarea;"Ordenamiento ecológico y del ambiente en general, propendiendo a un mejoramiento permanente de las condiciones de vida de los distintos sectores de la sociedad paraguaya para garantizar condiciones de crecimiento económico, equidad social y sustentabilidad ecológica a largo plazo";"Lograr el reconocimiento del Paraguay entre los mejores países en calidad ambiental de la región, siendo una institución eficiente, participativa y de liderazgo en la gestión ambiental del país, con especial énfasis en los recursos naturales y la conservación de la biodiversidad, con el fin de contribuir al mejoramiento de la calidad de vida de sus ciudadanos.";Nómina de Funcionarios;1.7;13527;2;-25.264437;-57.547952;
14233;14235;221659;http://www.snna.gov.py;Secretaría Nacional de la Niñez y la Adolescencia;Secretaría Nacional de la Niñez y la Adolescencia (SNNA);http://www.snna.gov.py;"En 1990 Paraguay ratifica la ""Convención Internacional sobre los Derechos del Niño"", que contó con la ratificación del mayor número de países en toda la historia de las Naciones Unidas.
	Con ello, el Paraguay se compromete a adecuar su legislación en concordancia con los principios y normativas de ese convenio, que marcó un cambio substancial sobre las políticas vigentes hasta entonces en materia de niñez y adolescencia.
	Tras la ratificación paraguaya de la ""Convención Internacional sobre los Derechos del Niño"", se obtienen importantes logros, como ser:
	-  Se sanciona la Ley Nº 1136/97 que establece un nuevo régimen jurídico para las adopciones.
	-  Se sanciona la Ley Nº 1680/01 – Código de la Niñez y la Adolescencia, que adopta el principio del interés superior del niño.
	-  Se sanciona la Ley Nº 2169/03, que establece el alcance del término niño, niña y adolescente.";"Sede Central (Dirección General de Administración y Finanzas, Oficinas de Gabinete, Dirección General de Asesoría Jurídica, Mesa de Entrada).
	Dirección: Avda. Mariscal López 2.029 e/ Acá Carayá. Asunción.

	Sede 2: (Programa Abrazo, Programa PAINAC, Dirección de Atención a los Niños, Niñas y Adolescentes de Pueblos Originarios, Dirección de Planificación y Dirección de Comunicación y Prensa).

	Sede 3: (oficina de fono Ayuda, Dirección de Participación Protagónica)
	Dirección: Pitiantuta 210 c/ Mcal. López. Asunción.";comunicacion@snna.gov.py;"Sede Central: 595 21 207-160

	Sede2: 595 21 207-166

	Ciudad del Este: 595 61 572-604";"";Asunción - Paraguay;"";CARLOS ZARATE;"Un Paraguay, donde los niños, niñas, adolescentes, sus familias y comunidades, promueven y exigen el pleno goce de sus derechos, a través de políticas públicas y acciones nacionales como locales que hacen a una vida digna.";"Articular a las instituciones y organizaciones sociales, en torno a la niñez y la adolescencia, ubicando los intereses superiores del niño y la niña como centro de las políticas destinadas al sector, haciendo efectiva la vigencia plena de sus derechos.

	Trabajar en acciones relacionadas a la restitución de derechos, dirigidas a poblaciones vulnerables, con propuestas que favorecen la movilización comunitaria para el fortalecimiento del sistema nacional de protección y promoción integral de los derechos.";http://www.snna.gov.py/nomina/;1.6;13527;2;-25.291757;-57.598738;
14821;14823;286174;http://www.spl.gov.py;Secretaría de Políticas Lingüísticas (SPL);Secretaría de Políticas Lingüísticas (SPL);http://www.spl.gov.py;"Es un órgano dependiente de la Presidencia de la República, y la autoridad de aplicación de la Ley Nº 4251 de Lenguas, que fue promulgada en fecha 29 de diciembre de 2010, y que tiene por objeto establecer las modalidades de utilización de las lenguas oficiales de la República, establecer las medidas adecuadas para promover y garantizar el uso de las lenguas indígenas del Paraguay y asegurar el respeto a la comunicación visogestual o lengua de señas.";"Avenida España N° 114 casi Tacuary, Edificio Villa Lorences.";spl@spl.gov.py;(+59521) 491 928;"";Asunción - Paraguay;"";Ladislaa Alcaraz;"Una Secretaría de gestión eficaz, eficiente y participativa, cohesionada internamente y articulada con  los demás estamentos del Estado, las gobernaciones, los municipios, y con la sociedad toda, a fin de impulsar el uso oral y escrito de las lenguas oficiales, ejecutando políticas lingüísticas tendientes a salvaguardar el carácter pluricultural y plurilíngüe de la nación, el respeto de los derechos lingüísticos y la preservación de las lenguas y culturas indígenas.";"La Secretaría de Políticas Lingüísticas (SPL) es un órgano del Estado paraguayo que funciona bajo dependencia directa de la Presidencia de la República, responsable de la aplicación de la Ley de lenguas; asimismo de la investigación y planificación del uso de las lenguas, en especial de las oficiales, en todos los ámbitos. Además, vela por la preservación, la promoción, la valoración y el uso de las lenguas indígenas y no indígenas del país.";Sin Datos;1.9;13527;2;-25.284109;-57.626279;
14811;14813;470390;http://www.senatics.gov.py;Secretaría Nacional de Tecnologías de la Información y Comunicación (SENATICs);Secretaría Nacional de Tecnologías de la Información y Comunicación (SENATICs);http://www.senatics.gov.py;"La Secretaría Nacional de Tecnologías de la Información y Comunicación (SENATICs) es la institución nacional responsable de definir políticas y estrategias transversales en materia de TICs (Tecnologías de la Información y Comunicación), y promover el desarrollo productos en el área de TICs para su aplicación a los diferentes campos del sector, siempre apuntando a mejorar la calidad de vida de los habitantes del país y a fortalecer el desarrollo del Estado e industrias locales a través del uso apropiado de las TICs, siendo ésta su misión institucional.";Complejo Santos E2 - Gral. Santos 1170 c/ Concordia;comunicaciones@senatics.gov.py;(595 21) 201-014 / 201-813;"";Asunción - Paraguay;"";Ing. David Ocampos Negreiros;Ser una entidad referente en mejorar prácticas dado el alto grado de penetración de las Tecnologías de la Información y Comunicación TICS y la efectiva utilización de plataformas libres que atiendas la diversidad y las necesidades sociales y ambientales del Paraguay.;"Definir e implementar políticas y estrategias transversales, en forma participativa y articulada, para garantizar el acceso, apropiación y uso de las Tecnologías de la Información y Comunicación TICS, a fn de mejorar la calidad de vida de la población y contribuír al desarrollo sostenible del país.";NÓMINA DE FUNCIONARIOS;1.5;13527;2;-25.279797;-57.608659;
13689;13691;88725;http://www.mag.gov.py/;Ministerio de Agricultura y Ganadería;Ministerio de Agricultura y Ganadería;http://www.mag.gov.py/;El Ministerio de Agricultura y Ganadería es el organismo encargado de las funciones y competencias relacionadas al espacio conceptual y físico dentro del cual se desarrollan las actividades de naturaleza agraria y ganadera del Estado.;"Yegros e/ 25 de Mayo y Cerro Corá, Edificio San Rafael";prensa@mag.gov.py;+595 21 450 937;"";Asunción - Paraguay;"";Ing. Agr. Jorge Gattini;"Ser una institución líder, eficiente y transparente; con recursos humanos calificados; que brinda servicios de excelencia al sector agrario con énfasis en la familia rural.";Regir la política sectorial e impulsar el desarrollo agrario sustentable y sostenible contribuyendo al mejoramiento de las condiciones de vida de la población.;Nómina de Funcionarios;1.5;13527;1;-25.284062;-57.633569;
13712;13714;88791;http://www.mopc.gov.py/;Ministerio de Obras Públicas y Comunicaciones;Ministerio de Obras Públicas y Comunicaciones;http://www.mopc.gov.py/;"Organismo rector en el desarrollo y mantenimiento de la infraestructura nacional altamente profesional, transparente y comprometida con el resultado.

	El Ministerio de Obras Públicas y Comunicaciones es el organismo encargado de elaborar, proponer y ejecutar las políticas y disposiciones del Poder Ejecutivo referente a las Iniciativa para la Integración de la Infraestructura Regional Sudamericana, IIRSA, a cargo de la Unidad de Coordinación Institucional.";"Oliva y Alberdi Nº 411, C.P. Nº 1221";comunicaciones@mopc.gov.py;595 (021) 4149000;"";Asunción - Paraguay;"";"Organismo rector en el desarrollo y mantenimiento de la infraestructura nacional altamente profesional, transparente y comprometida con el resultado.";"En el marco de su MISIÓN el Ministerio de Obras Públicas y Comunicaciones ha establecido su VISIÓN para determinar sus Objetivos Institucionales a mediano y largo plazo. A través de la misma determina cómo quiere verse en relación con:

	* la satisfacción de sus clientes (partes interesadas) actuales y potenciales,
	* respecto a sus servicios actuales y futuros,
	* la satisfacción de sus funciones e impacto en la sociedad y
	* qué resultados institucionales claves pretende alcanzar en los próximos años";Promover el desarrollo económico y social del Paraguay a través de la provisión de servicios de infraestructura básica de calidad.;http://www.mopc.gov.py/nomina-de-funcionarios-i38;1.2;13527;1;-25.282781;-57.637014;
13634;13636;147518;http://www.mre.gov.py;Ministerio de Relaciones Exteriores;Ministerio de Relaciones Exteriores;http://www.mre.gov.py/v1/default.aspx;"Dirección política y la gestión estratégica de las relaciones internacionales del Estado, y su representación internacional, así como el control de la actividad interna y externa de la Cancillería y del Servicio Exterior";Palma y 14 de Mayo Palacio Benigno López;http://www.mre.gov.py/v1/Contacto.aspx;"(595-21) 493928

	(595-21) 493902 

	(595-21) 445536";"";Asunción - Paraguay;"";ELADIO LOIZAGA;"Ser un Ministerio eficiente, profesional y transparente con liderazgo interno para la gestión de la política exterior del país.";"Planificar, coordinar y ejecutar una política exterior orientada a la promoción y defensa de los intereses del Estado y sus nacionales, y del Derecho Internacional.";http://www.mre.gov.py/v1/Contenido/462-lista-de-funcionarios.aspx;1.5;13527;1;-25.281307;-57.636541;
13673;13675;147707;http://www.mec.gov.py;Ministerio de Educación y Cultura;Ministerio de Educación y Cultura;http://www.mec.gov.py;http://www.mec.gov.py/planificacion_educativa/Revistas/2010/py_edu_cifras2010_VersionFinal260912.pdf;15 de Agosto e/ General Díaz y E. V. Haedo;direcciongeneraldecomunicacion@mec.gov.py;"(021) 450014/15 – 451025 – 452895  

	Llamada Gratuita (595) 0800 11 4975";"";Asunción - Paraguay;"";Marta Lafuente;"* Democrático, descentralizado, participativo, abierto e intercultural, que desarrolla la educación como bien público y derecho humano fundamental de todas las personas a lo largo de su vida.

	* Fundado en una pedagogía que reconoce como un supuesto antropológico la libertad del ser humano y que busca  proporcionar a la persona y a la comunidad las condiciones para autodeterminarse, individual y colectivamente,  liberarse y cambiar aquello que la oprime y le impide alcanzar su realización en todo su potencial.

	* Sustentado en un paradigma educativo que propugna la relación armónica, transformadora y ética entre las  personas y su contexto social y ambiental, e independiente de cualquier tipo de factor de dominación.

	* Que concibe al ser humano como un sujeto libre, activo y trasformador de la realidad propia y de su entorno social,  no como un mero receptor o simple reflejo del orden económico, social e histórico establecido.

	* Que considera a los sujetos de la educación como seres histórico-sociales, con plena capacidad para conocer,  crear y trasformar la realidad. Estudiantes y docentes son valorados como sujetos cognoscentes, capaces de aprender,  activos, críticos, práctico-reflexivos, que aprenden en una actividad educativa esencialmente dialógica-relacional,  que construyen colectivamente el conocimiento con sus compañeros y la sociedad, integrando la dimensión afectiva  de la educación y la toma de decisiones consensuadas en todo el proceso de formación profesional.

	* Gestionado por profesionales formados y actores comprometidos, con transparencia en sus procesos y sus  resultados, regido por la legislación y dotado de suficientes recursos financieros y tecnológicos

	* Que contribuye a la cohesión social, a la igualdad de género, al respeto y valoración de las etnias, a la participación activa de la familia y la comunidad, a la generación de conocimientos, al desarrollo socialmente responsable del país en el contexto de una política intersectorial, y a la integración activa con las naciones de la región y del mundo.

	* Que brinde una educación de calidad para todos y todas,  favoreciendo los aprendizajes significativos que responden  a las necesidades de formación de las personas y que les  permiten insertarse en la vida social y productiva del país.

	* Que contribuye a la formación de ciudadanos y ciudadanas  responsables, defensores/as de los derechos humanos y del  sistema democrático; solidarios/as con los demás y partícipes  en la construcción de una sociedad justa y fraterna.

	* Que reconoce a las instituciones educativas que logran los mejores resultados y motiva, continuamente, a innovar y mejorar la calidad educativa.";"El Ministerio de Educación y Cultura, como responsable de la  administración pública del sistema educativo y para la ejecución  del Plan Nacional de Educación 2024, tiene la misión de:

	* Rendir cuentas públicas de los procesos y los resultados, y evaluar en forma permanente la calidad de la gestión del sistema.

	* Promover y generar instrumentos legales necesarios para la organización, actualización permanente y gestión eficiente del sistema.

	* Seleccionar y evaluar en base a méritos a los profesionales, educadores y servidores públicos del sistema; elaborar y desarrollar planes de formación continua de los mismos.

	* Gestionar las distintas instancias del sistema educativo con la participación activa de la comunidad educativa la sociedad civil, las universidades, los cooperantes y los  medios de comunicación social.

	* Incorporar la investigación, la reflexión sobre la práctica y las TIC para la gestión del sistema, y como recursos pedagógicos para el aprendizaje.

	* Dinamizar, con visión prospectiva y emprendedora, el sistema y su cultura institucional, basado en la ética y la competencia de sus servidores, generando experiencias e innovaciones conformes a las necesidades del país y a los desafíos de la humanidad.

	* Impulsar un nuevo contrato social en torno a la educación.

	La misión fundamental del Ministerio de Educación y Cultura es garantizar una educación de calidad a fin de contribuir al mejoramiento de las condiciones de vida de toda la población";http://www.mec.gov.py/cms/entradas/293743-difusion-de-datos-de-funcionarios-del-mec;2.3;13527;1;-25.282786;-57.639016;
13850;13852;162463;http://www.mic.gov.py;Ministerio de Industria y Comercio;Ministerio de Industria y Comercio;http://www.mic.gov.py;"- Adoptar, en coordinación con otros organismos oficiales, la política económica más conveniente a la Nación, relacionada con las fuentes de abastecimiento de bienes y servicios, con el volumen y calidad de la demanda actual de los mismos, y en previsión de la futura, con la comercialización de dichos bienes y servicios.

	- Formular planes y programas de desarrollo industrial y comercial incorporando nuevas tecnologías, preservando el medio ambiente.

	- Promover, proteger y fomentar la actividad industrial propiciando el desarrollo de nuevos productos dirigidos a satisfacer la demanda interna y a los mercados externos.

	- Fomentar el mejor aprovechamiento del capital, los recursos humanos y naturales del País a través de la industrialización y la creación de nuevas empresas industriales, comerciales, de servicios, canalizando la asistencia gubernamental.";"Av. Mcal. López 3333 c/ Dr. Weiss, Villa Morra";info@mic.gov.py;+595 -21 616-3000;"";Asunción - Paraguay;"";GUSTAVO LEITE;SIN DATO;"Liderar el proceso de desarrollo sostenible; establecer políticas claras, orientadas al fortalecimiento del sector industrial, comercial y de servicios buscando la equidad social. Propiciar la reconversión económica del país, a fin de armonizar los intereses de los diferentes sectores productivos, facilitando la distribución, circulación y consumo de los bienes de origen nacional y promover el comercio interno y externo, en un marco de libre competencia, fomentando las prácticas legales de comercio y velando por la defensa de los derechos del consumidor y la propiedad intelectual.";Nómina de Funcionarios;1.7;13527;1;-25.292518;-57.582838;
13871;13873;163192;http://www.mujer.gov.py;Ministerio de la Mujer;Ministerio de la Mujer;http://www.mujer.gov.py;"El Ministerio de la Mujer es un organismo público creado por  ley 4.675/2012 que eleva al rango de Ministerio a la Secretaría de la Mujer.

	Es la instancia gubernamental, rectora normativa y estratégica de las políticas de género. Con autonomía técnica y de gestión, impulsa planes de acción para promover la igualdad de oportunidades y la equidad entre mujeres y hombres. Actualmente coordina la implementación del  III Plan Nacional de Igualdad entre Mujeres y Hombres 2008-2017.";"Presidente Franco esq. Ayolas

	Edificio Ayfra, Piso 13, bloque B y Planta Baja";secretariaprivada@mujer.gov.py;"(595 21) 450 036/8

	Atención a víctimas de violencia: (595 21) 45 20 60/2

	Atención a víctimas de trata de personas: (595 21) 49 78 15

	Dirección de Comunicación y Cultura Democrática: (595 21) 49 11 76";"";Asunción - Paraguay;"";Ana María Baiardi Quesnel;"El Ministerio de la Mujer promueve la transversalización de la perspectiva de género en las políticas públicas para el logro de la igualdad real entre mujeres y hombres, orientada al desarrollo humano y a la consolidación de la democracia.";"El Ministerio de la Mujer elabora, articula y ejecuta las políticas públicas con enfoque de género para lograr la igualdad de derechos entre mujeres y hombres.";Nómina de funcionarios;1.5;13527;1;-25.278775;-57.638946;
13535;13537;188759;http://www.mdi.gov.py/;Ministerio de Interior;Ministerio de Interior;http://www.mdi.gov.py/;"Estudiar, proponer y una vez aprobadas, poner en ejecución las políticas públicas relativas a Seguridad Interna, Asuntos Políticos, Población, Migración y Repatriación de Connacionales, en coordinación con los organismos competentes.";Chile y Manduvira;egonzalez@mdi.gov.py;"CENTRAL TELEFÓNICA

	595 21 415 - 2221

	595 21 415 - 2240";"";Asunción - Paraguay;"";Francisco José De Vargas Benítez;"Ser una Institución confiable, respetada y reconocida a nivel nacional e internacional como garante de la gobernabilidad democrática y la seguridad ciudadana";"Brindar seguridad ciudadana y promover la gobernabilidad democrática, contribuyendo al desarrollo del país y al bienestar de su población.";"Plantel Ejecutivo
	
		Resumen Directivos
	
		Funcionarios Permanentes
	
		Contratados Jornaleros
	
		Contratados - Profesionales
	
		Comisionados  al MDI
	
		Comisionados del MDI";1.7;13527;1;-25.287907;-57.639299;
13744;13746;193394;http://www.mspbs.gov.py;Ministerio de Salud Pública y Bienestar Social;Ministerio de Salud Pública y Bienestar Social;http://www.mspbs.gov.py;"En 1936, bajo el gobierno del coronel Rafael Franco, se creó el Ministerio de Salud Pública, mediante la promulgación del Decreto Ley Nº 2.000/36 del 15 de junio de 1936; mientras que por Decreto Ley N° 2.001/36 quedaron establecidas la organización y las funciones de la nueva Secretaría de Estado. Con anterioridad a 1936, todos los servicios de salud eran proveídos y administrados por el Ministerio del Interior, pero las secuelas sanitarias que produjo la Guerra del Chaco (1932-1935) en la población paraguaya hicieron que el Gobierno creyera conveniente la creación de un Ministerio de Salud Pública.
	
	En ese entonces, uno de los objetivos principales de la cartera de Estado era brindar asistencia médica a los heridos y mutilados de la contienda chaqueña, y controlar efectivamente el tratamiento y la transmisión de enfermedades como el paludismo, la disentería y la tifoidea, que migraron hacia la Región Occidental una vez concluida la Guerra del Chaco, con el retorno de los combatientes a sus hogares.
	
	No fue hasta 1998, que ese Decreto Ley Nº 2.001/36 fue derogado con la promulgación del Decreto Nº 21.376/98, por el cual se estableció la nueva organización funcional del Ministerio de Salud Pública y Bienestar Social. Este documento oficial fue firmado por el entonces Presidente de la República, Juan Carlos Wasmosy y propiciado por el Ministro Andrés Vidovich Morales, en consonancia, según reza en su artículo primero, con los preceptos pertinentes de la Constitución Nacional y el desarrollo del Sistema Nacional de Salud. 
	En esta normativa, ahora vigente, se puso especial énfasis en la función rectora de la salud humana y ambiental, y de bienestar social, que debía cumplir el Ministerio de Salud Pública, que a partir de ese momento inició una etapa de reformas y modernizaciones, principalmente legislativas.";Pettirossi Esq. Brasil;sau@mspbs.gov.py  (SAU: Servicio de Atención al Usuario);(595) 21 - 204-601/3;"";Asunción - Paraguay;"";Dr. Antonio Barrios;"Un Ministerio de Salud Pública y Bienestar Social eficiente, que ejerce su Misión en el Sistema Nacional de Salud, garantizando la asistencia sanitaria integral y equitativa, interviniendo intersectorialmente para incidir favorablemente sobre los factores determinantes de la salud, promoviendo la activa participación ciudadana.";"El Ministerio de Salud Pública y Bienestar Social es la entidad rectora y prestadora de servicios de salud, que promueve y ejecuta acciones que garanticen con equidad la calidad de vida, el bienestar físico, mental y social de las personas, como derecho fundamental y universal establecidos en la Constitución Nacional.";http://www.mspbs.gov.py/transparencia/funcionarios-de-salud/;1.6;13527;1;-25.292089;-57.626470;
13653;13655;214509;http://www.hacienda.gov.py;Ministerio de Hacienda;Ministerio de Hacienda;http://www.hacienda.gov.py;"Los orígenes del Ministerio de Hacienda de la República del Paraguay se remontan a instituciones de época de la conquista y colonización española, cuando el manejo de la cosa pública estaba a cargo de los oficiales del Tesoro Real.
	
	Durante muchos años de la época colonial española, la recaudación de los tributos era atribución de los gobernadores y corregidores. Posteriormente estas funciones pasaron al Tribunal de la Contaduría Mayor de Cuentas de Buenos Aires, al contador de Retasas, a los ministros de la Real Hacienda, contadores y tesoreros, a los intendentes y a los alcaldes ordinarios y subdelegados.
	
	El Ministerio de Hacienda es la primera y la más antigua de las secretarias de Estado de la Republica del Paraguay, cuyo precedente es la Oficina de la Real Hacienda, importante repartición del gobierno colonial español en el Paraguay.";Chile 252 | 1220;info@hacienda.gov.py;+595-21 440-010 al 17 | Fax: +595-21 448-283;"";Asunción - Paraguay;"";Germán Hugo Rojas Irigoyen;Lograr el Bienestar del Pueblo liderando un modelo de administración eficiente y transparente de los Recursos Públicos con Responsabilidad Fiscal y Social. Res. N ° 154/08.;"Promover una gestión macroeconómica responsables, impulsando el funcionamiento del régimen tributario de manera equitativa y administrando los recursos y las finanzas públicas con eficiencia y transparencia, con el fin de contribuir al desarrollo del país por la vía del crecimiento económico con equidad, ambientalmente sustentable y con inclusión social. Res. Nº 36/12.";Nómina de Funcionarios;2;13527;1;-25.281550;-57.635087;
221304;221306;484232;"";Ministerio de Trabajo Empleo y Seguridad Social (MTESS);Ministerio de Trabajo Empleo y Seguridad Social (MTESS);http://www.mtess.gov.py;"El Ministerio de Trabajo, Empleo y Seguridad Social, en adelante el Ministerio, es un órgano del Poder Ejecutivo, de orden público, al que corresponde la tutela de los derechos de los trabajadores y las trabajadoras, en materia de trabajo, empleo y seguridad social, como policía laboral en su carácter de Autoridad Administrativa del Trabajo.";Luis Alberto de Herrera esquina Paraguarí;info@mtess.gov.py;021 448183 – 021 493202;"";Asunción - Paraguay;"";Dr. Guillermo Sosa;"Velar por la protección de los trabajadores y las trabajadoras en sus distintas dimensiones, garantizando el respeto de sus derechos, especialmente de quienes se encuentren en condiciones de vulnerabilidad.

	Cumplir y hacer cumplir la legislación nacional, los contratos colectivos, los tratados, convenios y acuerdos internacionales aprobados y ratificados por nuestro país en materia de trabajo, empleo y seguridad social y vigilar su aplicación y cumplimiento.

	Fomentar relaciones laborales basadas en el diálogo y la cooperación entre los actores y en sus distintos niveles.

	Formular, planear, dirigir, coordinar, ejecutar, supervisar y evaluar las políticas nacionales y sectoriales en las materias socio-laborales, derechos fundamentales en el ámbito laboral incorporando la perspectiva de género, seguridad y salud en el trabajo, difusión de la normativa, información laboral y del mercado de trabajo, diálogo social, en los conflictos y relaciones de trabajo, seguridad social, inspección del trabajo, promoción del empleo, intermediación laboral, formación profesional y capacitación para el trabajo, normalización y certificación de competencias laborales, autoempleo, reconversión laboral y migración laboral.";"Ejercer la regulación administrativa y de contralor de lo relacionado con el trabajo, el empleo y la seguridad social.

	Determinar los objetivos y las políticas del área de su competencia y ejecutar los planes, programas y proyectos respectivos.

	Promover reformas de la legislación y elaborar proyectos, leyes y decretos.

	Elaborar, ejecutar y fiscalizar las normas generales y particulares referidas a higiene, salud, seguridad y medicina del trabajo en los lugares o ambientes donde se desarrollan las tareas, en las empresas ubicadas en el territorio nacional, organismos y empresas del Estado y en las empresas binacionales.

	Brindar asesoramiento técnico a los empleadores y trabajadores y a sus respectivas asociaciones que lo soliciten.

	Estudiar y examinar periódicamente la situación de las personas empleadas, desempleadas o subempleadas a la luz de la legislación y la práctica relativa a las condiciones de trabajo, de empleo y de vida profesional, señalar los defectos y abusos en tales condiciones y presentar propuestas sobre los métodos para remediarlos.

	Educar a la población en materia de derechos, deberes y obligaciones laborales, a fin de prevenir conflictos individuales y colectivos del trabajo.

	Entender en todo lo relativo al régimen del contrato de trabajo y de la relación de trabajo.

	Entender en lo relativo al derecho de sindicalización; y en las negociaciones y convenciones colectivas de trabajo sectorial e integral.

	Intervenir en el tratamiento de los conflictos individuales y colectivos extrajudiciales de trabajo, ejerciendo facultades de mediación y conciliación con arreglo a las disposiciones previstas en esta ley.

	Ejercer el poder de policía en el orden laboral y de seguridad social y coordinar las políticas y los planes de fiscalización, en especial lo relativo al control de empleos no registrados.

	Elaborar, aplicar y fiscalizar el régimen de trabajo de mujeres, menores de edad, personas con discapacidad y otros grupos en condiciones de vulnerabilidad.

	Generar políticas y programas de prevención y combate al trabajo forzoso o servidumbre por deuda, así como de la explotación infantil en el ámbito laboral.

	Promover la igualdad de oportunidades y de trato entre varones y mujeres en el acceso al empleo y en el trabajo, así como la protección de la maternidad.

	Intervenir en la elaboración y ejecución de las normas que orientan la política salarial del sector privado.

	Intervenir en la coordinación y armonización de los planes de empleo con los planes económicos y sociales.

	Participar en la preparación, administración, coordinación, control y revisión de la política nacional de empleo.

	Intervenir en la vinculación entre el empleo, la formación y capacitación laboral, la producción y la tecnología.

	Intervenir en la elaboración de las políticas de migraciones laborales internas y externas.

	Entender en la elaboración de estadísticas, estudios y encuestas que proporcionen un mejor conocimiento de la problemática del trabajo, el empleo y el desempleo, la formación y capacitación laboral, la prevención de riesgos laborales, los ingresos y la seguridad social.

	Participar en los asuntos referidos a la actividad de los organismos internacionales en las materias que corresponden a las áreas de su competencia.

	Propiciar la elaboración, de programas y regímenes integrados de seguridad social del sector público y del sector privado.

	Intervenir en la supervisión de los organismos y entidades correspondientes, en coordinación con los otros Ministerios del Poder Ejecutivo.

	Profesionalizar la carrera del fiscalizador mediante su capacitación continua en la materia";"";1.1;13527;1;-25.287588;-57.631817;
13815;13817;536034;http://www.mjt.gov.py;Ministerio de Justicia y Trabajo;Ministerio de Justicia y Trabajo;http://www.mjt.gov.py;"El Ministerio de Justicia y Trabajo es el ente rector y generador de las políticas de empleo y seguridad social, a través de un desempeño eficaz y eficiente, destacado por una gestión administrativa transparente, la lucha contra la corrupción y el respeto a los Derechos Humanos.";Avda. Dr. José Gaspar Rodríguez de Francia esq. Estados Unidos;info@mjt.gov.py;(021) 493-209;"";Asunción - Paraguay;"";Sheila Abed;"El Ministerio de Justicia y Trabajo es una Institución de servicio público con capacidad de posiblilitar el acceso a la Justicia para todos de manera eficiente, eficaz, transparente, pacífica, oportuna y en igualdad de condiciones, y con la capacidad de promover, proteger y garantizar el ejercicio pleno de los Derechos Humanos de todos los paraguayos y paraguayas.";Promover la efectiva vigencia de los Derechos Humanos y velar por el estricto cumplimiento del Régimen Laboral y de los Derechos Individuales y Colectivos de los Trabajadores.;http://www.mjt.gov.py/descargas/documentos/102430/funcionarios_mjt.pdf;2.5;13527;1;-25.294949;-57.631842;
29628;29630;29629;Gabinete Militar;Gabinete Militar;Gabinete Militar;http://www.gabimil.mil.py/;"El Gabinete Militar de la Presidencia de la República, fue creado durante la Presidencia del Gral. HIGINIO MORINIGO por Decreto – Ley Nº 3.872 de fecha 31 de mayo de 1944, que organiza los servicios de la Presidencia de la República.
Posteriormente, con el Decreto  Nº 4.000 de fecha 9 de junio de 1944 queda reglamentado sus funciones, dándole fuerza legal a una institución que tiene sus inicios en tiempos del  Mcal. FRANCISCO SOLANO LOPEZ"" quien contaba con Ayudantes Militares durante la guerra contra la Triple Alianza.";El Paraguayo Independiente entre Oleary y Ayolas;SIN DATOS;+59521 4140200;"";Asunción - Paraguay;"";Cnel. DEM Juan José Casaccia Furiasse;SIN DATOS;"El Gabinete Militar es el órgano representante de las Fuerzas Armadas de la Nación en la Presidencia de la República, encargado de asistir al Señor Presidente de la República en el ámbito militar y para los fines protocolares previstos en el Ceremonial del Estado.

	Le están confiadas la seguridad del Excelentísimo Señor Presidente de la República, durante su permanencia en el Palacio de Gobierno, la seguridad de las instalaciones, su área de influencia y la coordinación de los medios a ser empleados en la seguridad del Presidente de la República, en todo el territorio nacional y cuando se traslada al exterior del país.";SIN DATOS;1;13527;0;-25.277501;-57.637489;
46356;46358;46751;Crédito Agrícola de Habilitación (CAH);Crédito Agrícola de Habilitación (CAH);Crédito Agrícola de Habilitación;http://www.cah.gov.py/;"Es un ente autárquico con personería jurídica, patrimonio, contabilidad y administración propios, instituida el 21 de diciembre de 1943 y regida por Carta Orgánica Ley N° 551/75.";Carios 362 casi William Richardson;info@cah.gov.py;595215690100;"";Asunción - Paraguay;"";Amanda León;"Ser una institución referente en micro finanzas que ofrece servicios financieros integrales, innovadores y adecuados a las necesidades de la agricultura familiar campesina y de otros microempresarios especialmente rurales, que impulsen la economía familiar";"Brindar servicios financieros, técnicos y de organización al sector productivo preferentemente rural, buscando mejorar el ingreso, la capitalización de las unidades productivas y el acceso a otros servicios del mercado.";http://www.cah.gov.py/sites/default/files/documents/files/nomina.pdf;1.3;13527;3;-25.307936;-57.605454;
46413;46415;46963;Dirección de Beneficencia y Ayuda Social (DIBEN);Dirección de Beneficencia y Ayuda Social;Dirección de Beneficencia y Ayuda Social;http://www.diben.org.py/;SIN DATOS;Mcal. Lopez esq. EE.UU.;diben@diben.org.py;+59521225801/ 4;"";Asunción - Paraguay;"";Fernando Antonio Mendoza Rojas;"Somos una insitución referencial de la responsabilidad solidaria del Estado dirigida a personas y grupos en situación de vulnerabilidad, que apoya e implementa iniciativas y proyectos de desarrollo comunitario y brinda servicios en salud con la provisión de insumos para medicina de alta complejidad y alto costo.";Apoyar e implementar proyectos y servicios a la población en situación de vulnerabilidad mediante el fortalecimiento de iniciativas comunitarias y de las Organizaciones de la Sociedad Civil - OSC y la provision de insumos para medicina de alta complejidad y alto costo.;http://www.diben.org.py/ejes.php?id=34;1.4;13527;3;-25.285898;-57.625294 ;
47034;47036;47035;Dirección Nacional de Contrataciones Públicas (DNCP);Dirección Nacional de Contrataciones Públicas;Dirección Nacional de Contrataciones Públicas;https://www.contrataciones.gov.py/;SIN DATOS;E.E.U.U. 961 c/ Tte. Fariña;dncp@contrataciones.gov.py;+59521 4154000;"";Asunción - Paraguay;"";Pablo Fernando Seitz Ortiz;"Facilitar contrataciones públicas eficaces, económicamente óptimas, sustentables y con ecuanimidad, mediante procesos estandarizados, eficientes y confiables, ejecutados en su totalidad sobre plataforma electrónica.";"Regular, difundir, controlar, verificar y optimizar las contrataciones públicas, mediante procesos de calidad y eficiencia, orientados a la excelencia en la gestión.";https://www.contrataciones.gov.py/sicpfiles/LISTA.pdf;1;13527;3;-25.292945;-57.629481;
50398;50400;50409;"Instituto Nacional de Tecnología, Normalización y Metrología (INTN)";"Instituto Nacional de Tecnología, Normalización y Metrología";"Instituto Nacional de Tecnología, Normalización y Metrología";http://www.intn.gov.py/;"Somos una Entidad autárquica y descentralizada de investigación y asistencia técnica en el campo de las actividades científico-tecnológicas, con personería jurídica propia y jurisdicción en todo el territorio paraguayo.";Avda. Artigas 3973 e/ General Roa;intn@intn.gov.py;+59521 290 160 / 290 266;"";Asunción - Paraguay;"";Ever Cabrera;"Ser una institución reconocida nacional e internacionalmente por la calidad e innovación de sus servicios en el campo científico, técnico y tecnológico.";"Servir a la sociedad mediante la asistencia técnica, normalización, certificación, metrología, investigación científica e innovación con un enfoque de responsabilidad social para el desarrollo nacional.";"http://www.intn.gov.py/intn/sites/default/files/paginas_archivos/Personal%20Nombrado.pdf

	http://www.intn.gov.py/intn/sites/default/files/paginas_archivos/Personal%20Contratado_1.pdf";1.2;13527;3;-25.254333;-57.583889;
46464;46466;50753;Dirección Nacional de Transporte (DINATRAN);Dirección Nacional de Transporte;Dirección Nacional de Transporte;http://www.dinatran.gov.py/;"La Dirección Nacional de Transporte (DINATRAN) es un ente descentralizado con Personería Jurídica de Derecho Público.

	Fue creada el 16 de setiembre de 2000, mediante la Ley Nº 1590/00, como entidad reguladora de los servicios de transportes de pasajeros y cargas nacional e internacional y como organismo de aplicación de convenios y acuerdos en el ámbito de su competencia.";"Ruta Nº2 Mcal. Estigarribia, Km 14";dinatran@dinatran.gov.py;"59521 582145, 595 21582990, 59521 586289";"";San Lorenzo - Paraguay;"";Carlos Raul Peralta Raggini;"Consolidar a la DINATRAN por medio de la implementación, gestión y mejoramiento de sus procesos, generando la confiabilidad de los usuarios y operadores del sistema.";"Regular el sistema del transporte por carretera nacional e internacional de pasajeros y cargas de manera segura, eficiente y económica.";http://www.dinatran.gov.py/docum/NOMINA%20FUNCIONARIOS%20OCTUBRE_2013.pdf;1.5;13527;3;-25.341456;-57.497889;
46707;46709;56088;Dirección Nacional de Aduanas (DNA);Dirección Nacional de Aduanas;Dirección Nacional des (DNA);http://www.aduana.gov.py/;"La Dirección Nacional de Aduanas es la Institución encargada de aplicar la legislación aduanera, recaudar los tributos a la importación y a la exportación, fiscalizar el tráfico de mercaderías por las fronteras y aeropuertos del país, ejercer sus atribuciones en zona primaria y realizar las tareas de represión del contrabando en zona secundaria (Art. 1º de la Ley 2422/2004 – Código Aduanero).";El Paraguayo Independiente y Colón;car@aduana.gov.py;+59521 4162100;"";Asunción - Paraguay;"";Nelson Daniel Valiente Saucedo;"Ser una institución líder, reconocida internacionalmente por su modelo de gestión, sustentado en infraestructura, tecnología de vanguardia, capital humano calificado, motivado y confiable.";"Somos una institución autónoma facilitadora del comercio internacional, responsable de una eficiente recaudación de los tributos y fiscalización del tráfico de mercadería.";http://www.aduana.gov.py/1492-1-nomina-de-funcionarios.html;1.5;13527;3;-25.276607;-57.639403 ;
56129;56131;56138;Instituto Nacional de Desarrollo Rural y de la Tierra (INDERT);Instituto Nacional de Desarrollo Rural y de la Tierra;Instituto Nacional de Desarrollo Rural y de la Tierra;http://www.indert.gov.py/web/;Es la principal institución pública encargada de la ejecución de la reforma agraria. Fue creado por Ley Nº 2419 en julio de 2004.;Tacuary 276;SIN DATOS;+59521 443161;"";Asunción - Paraguay;"";Justo Cárdenas;"La Visión del Instituto Nacional de Desarrollo Rural y de la Tierra se enmarca en; la accesibilidad a la tierra propia para las familias campesinas (trabajadores rurales), y en la sostenibilidad económica mediante la generación de productos rentables; ofreciendo la suficiente infraestructura para educación, salud y establecimiento de un espíritu solidario, organizado, capacitado y proactivo para el desarrollo agrario.";"Como institución responsable de promover la integración armónica de la población campesina al desarrollo al desarrollo económico y social de la Nación, el Instituto Nacional de Desarrollo Rural y de la Tierra deberá adecuar la estructura agraria promoviendo el acceso a la tierra rural, saneando y regularizando su tenencia, coordinando y creando las condiciones propicias para el desarrollo que posibilite el arraigo conducente a la consolidación de los productores beneficiarios, configurando estrategias que integren participación, productividad y sostenibilidad ambiental.";http://www.indert.gov.py/web/images/archivos/Nomina.pdf;1.1;13527;3;-25.285479;-57.628341;
63293;63295;63332;Instituto Nacional de Cooperativismo (INCOOP);Instituto Nacional de Cooperativismo;Instituto Nacional de Cooperativismo;http://www.incoop.gov.py/v1/;"El Instituto Nacional de Cooperativismo, INCOOP, creado por La Ley 2157/03: ""Que regula el funcionamiento del INCOOP y establece su carta Orgánica"" expresa en su Art. 1: Es persona jurídica de derecho público, autónoma y autárquica, de duración indefinida, será la Autoridad de Aplicación de la Legislación Cooperativa y Autoridad de Control de los Entes Cooperativos, y se regirá por las disposiciones de la presente Ley, los reglamentos y demás normas relativas al Cooperativismo.";Avda. 25 de Mayo 1684 c/ Rca. Francesa;gabinete@incoop.gov.py;+59521 226989 (RA);"";Asunción - Paraguay;"";Valentín Galeano;"Ser reconocida como la mejor Institución Pública por su alto nivel de eficiencia y credibilidad, mediante la innovación continua, con una organización estructurada racionalmente, y un equipo humano con altas cualidades personales y profesionales que asegura el mantener la excelencia en los servicios que presta, potenciando su influencia a nivel público y privado.";"Nuestra misión es precautelar la estabilidad del Sector Cooperativo, mediante la regularización y supervisión adecuada, garantizando un trato equitativo a todos los clientes en base a los valores que rigen la institución a través de la búsqueda permanente del Desarrollo Integral de sus Recursos Humanos, y la promoción de Políticas Públicas Para el Desarrollo del Sector.";http://www.incoop.gov.py/v1/wp-content/uploads/2013/11/SALARIO-OFICIAL-DE-FUNCIONARIOS-INCOOP2.pdf;1.2;13527;3;-25.292283;-57.618901;
63352;63354;63387;Instituto Nacional de Salud (INS);Instituto Nacional de Salud;Instituto Nacional de Salud;http://www.ins.gov.py/;"El Instituto Nacional de Salud, es la institución que ejerce el liderazgo técnico para fortalecer el ejercicio de rectoría del Ministerio de Salud Pública y Bienes­tar Social en el Sector Salud, contribuyendo en la formulación, evaluación e implementación de políticas, en las áreas de formación y capacitación de re­cursos humanos en salud pública, investigación e información científica en salud.";Avda. Santísima Trinidad y Pasaje Francia;ins@ins.gov.py;+59521 296210;"";Asunción - Paraguay;"";Angilberto Paredes;"El INS busca lograr la eficiencia en la conducción, liderazgo, estructura y funciones promoviendo cambios en la cultura institucional, mediante un proceso de trabajo transformador que le facilite cumplir con la MISION asignada en el marco de la Rectoría del MSP y BS.";"Contribuir, con la formación y capacitación de los recursos humanos del sector salud, la producción y la administración del conocimiento, al fortalecimiento del ejercicio de la rectoría sectorial, la ampliación de la cobertura sanitaria, la calidad de la atención y la participación social; dentro del marco de la equidad y el desarrollo humano sostenible.";SIN DATOS;1.2;13527;3;-25.261669;-57.575435;
63505;63507;63572;Servicio Nacional de Calidad y Salud Animal (SENACSA);Servicio Nacional de Calidad y Salud Animal;Servicio Nacional de Calidad y Salud Animal;http://www.senacsa.gov.py/web/;SIN DATOS;Km 10 1/2 Ruta Mcal. Estigarribia;info@senacsa.gov.py;+595 21 505 727 / 501 374;"";San Lorenzo - Paraguay;"";Hugo Idoyaga;Servicio Pecuario Oficial promoviendo la Competitividad del Sector para el Desarrollo.;"Apoyar la política pecuaria nacional.
	
		Incrementar la competitividad, la sostenibilidad y la equidad.
	
		Fomentar la productividad con calidad animal.
	
		Preservar la sanidad animal y la salud pública.
	
		Garantizar la inocuidad de los alimentos.
	
		Fomentar el desarrollo económico con responsabilidad social y medio ambiental.";"http://www.senacsa.gov.py/web/pdf/nomina_funcionarios/listado_funcionarios_permanentes.pdf

	http://www.senacsa.gov.py/web/pdf/nomina_funcionarios/listado_funcionarios_contratados.pdf";1.3;13527;3;-25.340453;-57.530739;
55728;55730;63579;Ente Regulador de Servicios Sanitarios (ERSSAN);Ente Regulador de Servicios Sanitarios (ERSSAN);Ente Regulador de Servicios Sanitarios;http://www.erssan.gov.py/;"El Ente Regulador de Servicios Sanitarios (ERSSAN) es una entidad autárquica dependiente de la Presidencia de la República que funciona desde el año 2000 como resultado de la promulgación de la Ley 1614. Desarrolla actividades administrativas, jurídicas, técnicas y de supervisión para garantizar que los prestadores de agua potable y saneamiento se extiendan a todo el país, provean sus servicios con la calidad y cantidad necesarias, y que su precio sea justo y sostenible.";Avda. Artigas 1921 Edificio Automotor 1er. Piso;SIN DATOS;+59521 283556;"";Asunción - Paraguay;"";Cristina Muñoz;"Propender a que los prestadores del servicio de provisión de agua potable y saneamiento brinden cobertura a toda la población del país, para garantizar tanto la calidad y la continuidad de la prestación con precios justos, tendiendo a la sostenibilidad del servicio, al logro del autocontrol por parte de las empresas, así como la renovación de las inversiones.";"Garantizar que los prestadores de agua potable y saneamiento del país provean sus servicios, brinden la calidad y cantidad necesarias, que su precio sea justo y sostenible en el largo plazo. Esta responsabilidad sea cumplida buscando promover la transparencia en el mercado, desarrollando una actuación eficiente y eficaz.";SIN DATOS;1.2;13527;3;-25.271325;-57.604918;
50525;50527;63598;Dirección Nacional de Aeronáutica Civil (DINAC);Dirección Nacional de Aeronáutica Civil;Dirección Nacional de Aeronáutica Civil;http://www.dinac.gov.py/v2/;SIN DATOS;"Avda. Mcal. López e/Vice Pdte. Sánchez y 22 de Setiembre, 2do. Piso";presiden@dinac.gov.py;+59521 203615;"";Asunción - Paraguay;"";Luis Manuel Aguirre Martinez;SIN DATOS;SIN DATOS;SIN DATOS;1.1;13527;3;-25.293333;-57.612696;
45355;45357;63600;Comisión Nacional de Telecomunicaciones (CONATEL);Comisión Nacional de Telecomunicaciones CONATEL;Comisión Nacional de Telecomunicaciones CONATEL;http://www.conatel.gov.py/;"La Comisión Nacional de Telecomunicaciones, entidad autárquica con personería jurídica de derecho público, encargada de la regulación de las telecomunicaciones nacionales.";Presidente Franco N° 780 esq. Ayolas;informatica@conatel.gov.py;595214382000;"";Asunción  –  Paraguay;"";Eduardo Neri González Martinez;"Lograr el bienestar general de la población en materia de conectividad, calidad, continuidad y universalización de acceso a las telecomunicaciones garantizando la igualdad y libre competencia";"Planificar, Organizar y Controlar de manera eficaz y eficiente el proceso de regulación técnico y administrativo de las telecomunicaciones de conformidad a las normas válidas y vigentes";"http://www.conatel.gov.py/index.php?option=com_content&amp;view=article&amp;id=9&amp;Itemid=149";1.3;13527;3;-25.278864;-57.638448;
46793;46795;63769;Instituto Paraguayo de Artesanía (IPA);Instituto Paraguayo de Artesanía;Instituto Paraguayo de Artesanía;http://www.artesania.gov.py/;"El Instituto Paraguayo de Artesanía, fue creado por Ley Nº 2448/2004 y tiene por objeto promover el desarrollo de la artesanía nacional, estimular y proteger al artesano, buscar canales de comercialización e incentivar la formación de artesanos entre otras funciones. Es una entidad autárquica, descentralizada, con personería jurídica y patrimonio propio. Esta entidad estará sujeta a las disposiciones de derecho público. 

	Toda aquella actividad económica de creación, producción, restauración o reparación de bienes de valor artístico o popular, así como la artesanía siempre que tales actividades se realicen mediante procesos en los que la actividad desarrollada sea predominantemente manual. Para obtener tal consideración deberá estar incluida en el listado de oficios artesanos Ley 2448/04. 

	Es uno de los Objetivos del Instituto el de ""elevar el nivel de vida de las comunidades artesanales fortaleciendo el desarrollo de sus núcleos, capacidad productiva y de comercialización, generando alianzas de acuerdo con la demanda del mercado nacional e internacional, por medio de la competitividad.";Dr. Prieto c/ Cap. Nicolas Bliloff;ipa@artesania.gov.py;(59521) 526536;"";Asunción - Paraguay;"";Esmilse Bobadilla;Una institución que facilita los estudios de factibilidad posibilitando los procesos de formalización para un mejor posicionamiento de los productos artesanales;Promover la artesanía como patrimonio cultural e identidad de nuestra nación y fomentarla para su conservación y como una vía para el desarrollo económico de los artesanos preservando el acervo artesanal de nuestra cultura.;http://www.artesania.gov.py/index.php/component/content/article/54-hola/117-nomina-de-funcionarios;1.4;13527;3;-25.304410;-57.562211;
62313;62315;64939;Instituto Forestal Nacional (INFONA);Instituto Forestal Nacional;Instituto Forestal Nacional;http://www.infona.gov.py/;SIN DATOS;"Ruta Nº 2 ""Mcal. Estigarribia"". Km. 10 1/2";SIN DATOS;+59521 570518 - 570519;"";San Lorenzo - Paraguay;"";Rolando Gabriel de Barros Barreto Acha;SIN DATOS;SIN DATOS;http://www.infona.gov.py/nomina-de-funcionarios;1.1;13527;3;-25.337854;-57.526996;
56237;56239;76531;Servicio Nacional de Calidad y Sanidad Vegetal y de Semillas (SENAVE);Servicio Nacional de Calidad y Sanidad Vegetal y de Semillas;Servicio Nacional de Calidad y Sanidad Vegetal y de Semillas;http://www.senave.gov.py/;"Creado por Ley Nº 2459, del 4 de octubre de 2004, el Servicio Nacional de Calidad y Sanidad Vegetal y de Semillas (SENAVE) es un ente autárquico formado a partir de la fusión de la Dirección de Defensa Vegetal, la Dirección de Semillas, la Oficina Fiscalizadora de Algodón y Tabaco y el Departamento de Comercialización Interna y Externa de Productos y Subproductos Vegetales. Estos organismos correspondían originalmente al Ministerio de Agricultura y Ganadería. Pero el SENAVE recién funciona como institución en el 2005.";Humaitá Nº 145 c/ Ntra. Sra. de la Asunción.;consultas@senave.gov.py;+59521 445-769 / 441-549 / 451-910;"";Asunción - Paraguay;"";Francisco Regis Mereles Maciel;SIN DATOS;"El SENAVE tendrá como misión apoyar la política agroproductiva del Estado, contribuyendo al incremento de los niveles de competitividad, sostenibilidad y equidad del sector agrícola, a través del mejoramiento de la situación de los recursos productivos respecto a sus condiciones de calidad, fitosanidad, pureza genética y de la prevención de afectaciones al hombre, los animales, las plantas y al medio ambiente, asegurando su inocuidad.";http://www.senave.gov.py/lista-de-funcionarios.html;1.1;13527;3;-25.286165;-57.636728;
55767;55769;78828;Fondo Ganadero (FG);Fondo Ganadero;Fondo Ganadero;http://www.fondogan.gov.py/;"Ente autárquico, revestirá la forma de Entidad Financiera de Desarrollo y Asistencia Técnica del Estado, con personería jurídica reconocida, patrimonio, contabilidad y administración propios, que se regirá por las disposiciones de la presente Ley, disposiciones legales afines y resoluciones de su Comité de Administración.";Avda. Mcal. López 1699 esq. República Dominicana;sgeneral@fondogan.gov.py;+59521 227 288;"";Asunción - Paraguay;"";Martín Maciel;SIN DATOS;"Entidad financiera competitiva con responsabilidad social y ambiental orientada al productor pecuario, mediante la atención personalizada, la asistencia técnica, que se consolida a través de sus carteras y el comercio internacional.";http://www.fondogan.gov.py/media/Lista_de_Funcionarios.pdf;1.3;13527;3;-25.292632;-57.606103;
148045;148047;148126;Administración Nacional de Electricidad;Administración Nacional de Electricidad;Administración Nacional de Electricidad;http://www.ande.gov.py/;"La ANDE es una institución autárquica, descentralizada de la Administración Pública, de duración ilimitada, con personería jurídica y patrimonio propio. Estará sujeta a las disposiciones civiles y comerciales comunes, en todo lo que no estuviera en oposición a las normas contenidas en la Ley N° 966 y su posterior ampliación.";España 1268 casi Padre Cardozo;SIN DATOS;+595 21 211001 /20;"";Asunción - Paraguay;"";Víctor Raúl Romero Solís;"Ser una empresa pública moderna y eficiente, líder en la prestación de servicios en el país y calificada entre las mejores del sector eléctrico de la región";"Satisfacer las necesidades de energía eléctrica del país y actuar en el sector eléctrico regional, con responsabilidad social y ambiental y excelencia en la administración y el servicio, para contribuir al desarrollo del Paraguay y al bienestar de su población.";http://www.ande.gov.py/documentos/NOMINA_PERSONAL_PERCIBEN_SALARIO.pdf;1.1;13527;4;-25.288823;-57.612393;
148150;148152;148151;Banco Nacional de Fomento;Banco Nacional de Fomento;Banco Nacional de Fomento;http://www.bnf.gov.py/;"El Banco Nacional de Fomento es una Institución autárquica con personería jurídica, cuyo patrimonio se considera jurídicamente separado de los bienes del Estado.";Independencia Nacional esq. Cerro Corá;correo@bnf.gov.py;(+595 21) 419 1000;"";Asunción - Paraguay;"";Carlos Alberto Pereira Olmedo;"Banco Público de desarrollo, eficiente, solido y competitivo, con mayor cobertura geográfica del país, reconocido a nivel nacional como líder en el financiamiento de los sectores productivos, con servicios bancarios de calidad y compromiso social.";"Impulsar el desarrollo económico y social del país, a través de la promoción  y el financiamiento de programas de fomento de los sectores productivos, con productos y servicios bancarios competitivos y de calidad, que contribuyan al mejoramiento de las condiciones de vida de las personas.";http://www.bnf.gov.py/archivos/BNF_SALARIOS_2014.pdf;1;13527;4;-25.283669;-57.634380;
149912;149914;150059;Empresa de Servicios Sanitarios del Paraguay S.A.;Empresa de Servicios Sanitarios del Paraguay S.A.;Empresa de Servicios Sanitarios del Paraguay S.A.;http://www.essap.com.py/essap/;"El ente regulador del sector es la ERSSAN (Ente Regulador de Servicios Sanitarios) creado por Ley 1614 del 2 de Noviembre de 2000, sancionada para crear el MARCO REGULATORIO Y TARIFARIO DEL SERVICIO PUBLICO DE AGUA POTABLE Y ALCANTARILLADO SANITARIO DE LA REPUBLICA DEL PARAGUAY.CORPOSANA entidad sujeta al proceso de reorganización y transformación, es declarada por medio de la Ley 1615, ""Entidades Públicas del Estado en Reforma o Transformación"" EPERT. REORGANIZACIÓN es definida como un proceso de reestructuración interno sin alterar su naturaleza jurídica. TRANSFORMACIÓN es su conversión en Personas Jurídicas que pasarán a regirse por el Derecho Privado.";José Berges 516 e/ San José y Brasil;prensa.essapsa@gmail.com;0800-11-0888/162 (R.A.);"";Asunción - Paraguay;"";Osmar Sarubbi;SIN DATOS;SIN DATOS;http://www.essap.com.py/essap/index.php/documentaciones/nomina-de-funcionarios;1.3;13527;4;-25.286822;-57.621047 ;
63410;63412;161803;Instituto Paraguayo del Indígena (INDI);Instituto Paraguayo del Indígena;Instituto Paraguayo del Indígena;http://www.indi.gov.py/;"El Instituto Paraguayo del Indígena (INDI) es una entidad autónoma que tiene como misión garantizar el cumplimiento de los derechos indígenas de modo articulado y coordinado con otras instituciones, armonizando los mandatos legales del Estado con la participación de los pueblos indígenas.";Don Bosco 745 e/ Haedo y Humaita;"comunicacion@indi.gov.py  

	informatica@indi.gov.py";+59521 452280;"";Asunción - Paraguay;"";Jorge Servín;"Una institución líder, fuerte, eficiente, ágil y transparente, que propicia la participación indígena en todos los ámbitos del Estado Paraguayo y la sociedad.";"Garantizar el cumplimiento de los derechos indígenas de modo articulado y coordinado con otras instituciones, armonizando los mandatos legales del Estado con la participación de los pueblos indígenas.";SIN DATOS;1.4;13527;3;-25.280277;-57.645698;
173010;173012;173042;Procuraduría General de la República;Procuraduría General de la República;Procuraduría General de la República;http://www.pgr.gov.py/;"La Procuraduría General de la República es la Institución creada por la Constitución Nacional del año 1992, para defender los intereses patrimoniales del Estado Paraguayo.";Cerro Corá 2249 e/ 22 de Setiembre y Vice Pte Sánchez.;info@pgr.gov.py;+ 595 21 215 034/ 7;"";Asunción - Paraguay;"";Roberto Moreno Rodríguez A.;"Institución Constitucional de prestigio y credibilidad con capacidad asesora al Estado por medio de acciones jurídico-judiciales, eficaces y eficientes, con carácter vinculante, a través de profesionales especializados y con sentido de pertenencia.";"Representar y defender judicial o extrajudicialmente los intereses patrimoniales del Estado Paraguayo, conforme a las normas constitucionales y leyes vigentes, con profesionalismo y transparencia.";http://www.pgr.gov.py/wp-content/uploads/2013/10/ASIGNACIONES-SALARIALES-20131.pdf;1.1;13527;0;-25.295572;-57.614261;
148181;148183;175167;Compañía Paraguaya de Comunicaciones S.A.;Compañía Paraguaya de Comunicaciones S.A.;Compañía Paraguaya de Comunicaciones S.A.;http://www.copaco.com.py/portal/;"La Compañía Paraguaya de Comunicaciones S.A. fue creada el 15 de noviembre de 2001 y comenzó a operar el 3 de diciembre del mismo año; la misma surge de la transformación producida de la Administración Nacional de Telecomunicaciones – ANTELCO, por los efectos dispuestos en la Ley 1615/00 de "" Reorganización de Entidades Públicas Descentralizadas y de Reforma y Modernización de Organismos de la Administración Central "". Nace con el objetivo principal de prestar servicio público de telecomunicaciones dentro del territorio nacional y en el exterior, así como los servicios de difusión y de valor agregado. 

	Dada la transformación de la empresa, en una Compañía sujeta a las disposiciones del derecho privado, con el alcance y limitaciones que ello implica, se inició un proceso de definición de planes, estrategias y políticas en las que basará sus operaciones a fin de posibilitar la provisión de servicios con mayor eficacia y eficiencia a través de una adecuada administración de los recursos y la óptima gestión de los riesgos del negocio, que resultan cada vez mas complejos dado los escenarios que se plantean en el entorno y dentro de la misma Compañía.

	Estas situaciones hicieron que se refuercen las medidas que fortalezcan el buen gobierno de la empresa y el necesario control de los recursos, entendido desde el punto de vista de una gestión efectiva, teniendo como eje fundamental la satisfacción de las necesidades de comunicación de los clientes.";"Alberdi y Oliva N° 531, Piso 1, entre Gral Díaz y Oliva";callcenter@copaco.com.py;+595 21 2385027   +595 21 2382375;"";Asunción - Paraguay;"";Rogelio Benítez Vargas;"Ser reconocida por la sociedad paraguaya como la mejor empresa de servicios del país, y como modelo de empresa del Estado, por sus estándares de competitividad, orientación al cliente y calidad de sus servicios, que la posicionan como líder del mercado nacional.";"Brindar las mejores soluciones tecnológicas a las necesidades de comunicación de las personas y empresas, para contribuir al bienestar y desarrollo del pueblo paraguayo, con honestidad, responsabilidad social, eficiencia y personal calificado y comprometido.";http://www.copaco.com.py/portal/images/descargas/NominaEmpleados2013.pdf;1.5;13527;4;-25.283020;-57.637006;
178998;179000;178999;Vice Presidencia de la República del Paraguay;Vice Presidencia de la República del Paraguay;Vice Presidencia de la República del Paraguay;http://www.vicepresidencia.gov.py/;SIN DATOS;Juan E. Oleary 222 esq. Pdte. Franco;SIN DATOS;+595 21 457-140 / 1;"";Asunción - Paraguay;"";Juan Eudes Afara Maciel;"La población ve garantizadas las condiciones de respeto, armonia, gobernabilidad e institucionalidad en el máximo poder del pais y percibe una dinamica gestión orientada a la consecución de los objetivos superiores de la Nación.

	Organizaciones de la sociedad civil encuentran en la Vicepresidencia de la República un escenario de expresión de inquietudes y propuestas, donde ESTADO y SOCIEDAD establezcan compromisos de transparencia y participación, tan necesarias para el desarrollo de una soiedad civil más activa.";"Mision consitucional:
	- Sustituir de inmediato al Presidente de la República, en los casos previstos en la Constitución Nacional.
	- Por designación del Presidente de la República, representarlo con sus mismas prerrogativas, en los ambitos Nacional e Internacional.
	- Participar de las deliberaciones del Consejo de Ministros.
	- Coordinar las relaciones entre el Poder Ejecutivo y el Legislativo.

	Mision institucional

	Volver trascendente e importante el accionar de la Vicepresidencia a traves de un sistema de Gestión PREVISIBLE, ESTRATEGICO, OPORTUNO, EFICIENTE Y TRANSPARENTE en el acompañamiento de los Programas y Proyectos derivados de Políticas de Estado y en la Generación de iniciativas que respondan con equidad las inquietudes, necesidades y expectativas del pueblo.";http://www.vicepresidencia.gov.py/?page_id=1401;1;13527;0;-25.279249;-57.638043;
179242;179244;179243;Auditoría General del Poder Ejecutivo;Auditoría General del Poder Ejecutivo;Auditoría General del Poder Ejecutivo;http://agpe.gov.py/;SIN DATOS;Juan Bautista Alberdi Nº 972 c/ Manduvirá;SIN DATOS;(595 21) 493 171-5;"";Asunción - Paraguay;"";Bertha Rodriguez de Perinetto;"Convertirnos en un órgano líder y modelo, que promueva y fortalezca la cultura de control en los organismos y entidades del Poder Ejecutivo para el año 2018";Somos un órgano técnico-normativo de control y asistencia a las entidades dependientes del Poder Ejecutivo para contribuir a la optimización de los Recursos Públicos;"http://agpe.gov.py/agpe/v2/index.php?option=com_joomdoc&amp;task=doc_view&amp;gid=68&amp;tmpl=component&amp;format=raw&amp;Itemid=64";1;13527;0;-25.287194;-57.639864;
184353;184355;184420;Presidencia de la República del Paraguay;Presidencia de la República del Paraguay;Presidencia de la República del Paraguay;http://www.presidencia.gov.py/;"";"Palacio de Gobierno, El Paraguayo Independiente entre O'leary y Ayolas";"";+59521 4140200;"";Asunción - Paraguay;"";"Horacio Manuel Cartes Jara, Presidente de la República del Paraguay";"";"";http://www.presidencia.gov.py/nomina/;1.2;13527;0;-25.277501;-57.637489;
45310;45312;184453;Agencia Financiera de Desarrollo (AFD);Agencia Financiera de Desarrollo;Agencia Financiera de Desarrollo;http://www.afd.gov.py/;"Banca Pública de segundo piso que impulsa el desarrollo económico y la generación de empleo a través de la canalización de recursos financieros destinados a proyectos de inversión y préstamos a la población, que se otorgan mediante bancos, financieras y cooperativas acreditadas";"Herib Campos Cervera 886 c/ Aviadores del Chaco - Edificio Australia, 3er. y 4to. Piso";fsanchez@afd.gov.py;(595-21) 606 020 (R.A.);"";Asunción  –  Paraguay;"";Jose Maciel;"Ser una institución reconocida por su rol de alto impacto económico y social con permanente innovación, con funcionarios competentes y comprometidos con la excelencia";"Somos una banca pública de segundo piso, que impulsa el desarrollo económico y la generación de empleo a través de la canalización de recursos financieros y la provisión de servicios especializados al sector privado";http://www.afd.gov.py/userfiles/file/Salarios%20AFD%20VF_23_10_2013.pdf;1.3;13527;3;-25.282601;-57.563814;
179302;179304;198962;Escribanía Mayor de Gobierno;Escribanía Mayor de Gobierno;Escribanía Mayor de Gobierno;http://www.emg.gov.py/;SIN DATOS;Avda. Colón 1163 e/ Jejuí e Ygatimi;emg.gov@gmail.com;+59521 423 117 Fax  +59521 423 116;"";Asunción - Paraguay;"";Martha Beatriz Narvaja Ramirez;SIN DATOS;SIN DATOS;SIN DATOS;1.2;13527;0;-25.285793;-57.646555;
28705;28707;199191;http://www.gabinetecivil.gov.py/;Gabinete Civil de la Presidencia de la República;Gabinete Civil de la Presidencia de la República;http://www.gabinetecivil.gov.py/;"El Gabinete Civil, es un organismo de apoyo y asesoramiento técnico-político al Presidente de la República, por medio del cual el Poder Ejecutivo, coordina los procesos definición, instalación, publicación oficial, comunicación y seguimiento de las políticas de Gobierno y de Estado.Lo hace en forma efectiva, proactiva, oportuna, armónica, participativa y transparente, atendiendo a las demandas sociales e integrando las capacidades institucionales para contribuir al funcionamiento adecuado de los Organismos y Entidades del Estado.";El Paraguayo Independiente y Ayolas;informatica@presidencia.gov.py;+595 21 4140200;"";Asunción - Paraguay;"";Juan Carlos López Moreira Borgognon;"";"El Gabinete Civil, es un organismo de apoyo y asesoramiento técnico-político al Presidente de la República, por medio del cual el Poder Ejecutivo, coordina los procesos definición, instalación, publicación oficial, comunicación y seguimiento de las políticas de Gobierno y de Estado.Lo hace en forma efectiva, proactiva, oportuna, armónica, participativa y transparente, atendiendo a las demandas sociales e integrando las capacidades institucionales para contribuir al funcionamiento adecuado de los Organismos y Entidades del Estado.";"";1.3;13527;0;-25.277501;-57.637489;
30053;30055;199248;Gabinete Social;Gabinete Social;Gabinete Social;http://www.gabinetesocial.gov.py/;"El Gabinete Social fue creado en septiembre de 2003 a raíz de la preocupación del Gobierno Nacional por contar con una instancia articuladora de las Instituciones Públicas que encaminan programas de superación de la pobreza. Desde entonces, funciona como órgano coordinador de las políticas sociales de Gobierno.

	Actualmente por Decreto N° 751, del 20 de noviembre del 2013, el Poder Ejecutivo establece la reestructuración del Gabinete Social de la Presidencia de la República, como órgano encargado de promover, coordinar y dirigir la gestión de los programas y las políticas públicas del Gobierno Nacional en el Área Social (Art.1).

	Este decreto busca imprimirle eficiencia a la gestión de las políticas sociales en el marco de Sembrando Oportunidades.";"Pdte. Franco esq. Ayolas. Edificio Ayfra, Piso 12";comunicacionutgs@gabinetesocial.gov.py;+595 21 493456/8;"";Asunción – Paraguay;"";Mirta Denis;SIN DATOS;"Somos un órgano técnico multidisciplinario, orientado al cumplimiento de los objetivos del Gabinete Social, que promueve, coordina y articula las políticas sociales con las instituciones y los actores involucrados, para garantizar el Desarrollo Humano en el Paraguay";SIN DATOS;1.3;13527;0;-25.278771;-57.638819;
46199;46201;264741;Comisión Nacional de Valores (CNV);Comisión Nacional de Valores;Comisión Nacional de Valores (CNV);http://www.cnv.gov.py;"La Comisión Nacional de Valores es una entidad de derecho público, autárquica y autónoma en el ejercicio de sus atribuciones y funciones, con jurisdicción en toda la República. Sus actividades principales pueden resumirse en los siguientes ejes:

	Eje 1: Reglamentar el Mercado de Valores Nacional.

	Eje 2: Llevar el registro y control de agentes participantes y títulos valores emitidos por éstos.

	Eje 3: Realizar inspecciones y fiscalizaciones in situ a los diferentes agentes.

	Eje 4: Promocionar el Mercado de Valores Nacional.";"Lugano (1ra. Proyectada) N° 627 casi 15 de Agosto, 2° Piso";cnv@cnv.gov.py;59521444242;"";Asunción - Paraguay;"";Fernando Anibal Escobar Espínola;"La CNV es una entidad técnica de derecho público, autárquica y autónoma en el ejercicio de sus atribuciones y funciones. Esta institución ejerce eficazmente la supervisión y regulación de las entidades y actividades relativas al Mercado de Valores y asegura la correcta formación de los precios en el mercado de valores. Es considerada como autoridad técnica competente y digna de confianza.";"La CNV tiene la Misión de asegurar a los inversionistas y al público en general, el funcionamiento competitivo, confiable y transparente del Mercado de Valores. Asimismo, velar por la veracidad y relevancia de las informaciones necesarias para la correcta formación de los precios y la protección de los intereses de las partes. Así también, la CNV busca establecer normas generales de conducta aplicables a las personas fiscalizadas y a las que prestan servicios en la Comisión Nacional de Valores.";http://www.cnv.gov.py/institucional/directores.php;1.4;13527;3;-25.289266;-57.643973;
